STARLINK-36166          
1 67084U 25298K   26001.83336806 -.00084407  00000+0 -13823-2 0  9990
2 67084  69.9994 193.1737 0003415 276.6663 306.9326 15.52548969  4145
STARLINK-35794          
1 67085U 25298L   26001.83336806 -.00060059  00000+0 -98005-3 0  9994
2 67085  69.9991 193.1733 0003572 274.9242 310.5916 15.52541330  4205
STARLINK-35841          
1 67086U 25298M   26001.83336806 -.00102649  00000+0 -16850-2 0  9994
2 67086  69.9994 193.1690 0003463 277.4115 310.0238 15.52556707  4203
STARLINK-35842          
1 67087U 25298N   26001.83336806 -.01732425  00000+0 -42380-1 0  9993
2 67087  69.9990 193.3761 0003686 276.2901 132.8227 15.44111270  4209
STARLINK-35882          
1 67088U 25298P   26001.83336806 -.00065573  00000+0 -10711-2 0  9990
2 67088  69.9991 193.1652 0003528 277.1948 314.0726 15.52539929  4206
STARLINK-35763          
1 67089U 25298Q   26001.83336806 -.00077621  00000+0 -12701-2 0  9999
2 67089  69.9992 193.1621 0003487 278.0447 315.1377 15.52544937  4201
STARLINK-36060          
1 67090U 25298R   26001.83336806 -.00071158  00000+0 -11633-2 0  9993
2 67090  69.9992 193.1596 0003499 276.1009 318.9982 15.52541553  4147
STARLINK-36097          
1 67091U 25298S   26001.83336806 -.00078011  00000+0 -12766-2 0  9997
2 67091  69.9993 193.1575 0003456 276.7593 320.2590 15.52543918  4208
STARLINK-35792          
1 67092U 25298T   26001.83336806 -.00115718  00000+0 -19024-2 0  9998
2 67092  69.9991 193.1551 0003480 276.2835 322.6489 15.52566401  4140
STARLINK-35784          
1 67093U 25298U   26001.83336806 -.00095502  00000+0 -15661-2 0  9990
2 67093  69.9991 193.1526 0003518 277.0429 323.8041 15.52556697  4203
STARLINK-36202          
1 67094U 25298V   26001.83336806 -.00089219  00000+0 -14620-2 0  9993
2 67094  69.9991 193.1508 0003382 276.8645 325.8984 15.52553395  4200
STARLINK-36227          
1 67095U 25298W   26001.83336806 -.00122552  00000+0 -20163-2 0  9991
2 67095  69.9994 193.1477 0003381 275.5024 329.1787 15.52570412  4145
