CCSDS_OMM_VERS = 2.0
CREATION_DATE  = 
ORIGINATOR     = 

OBJECT_NAME    = STARLINK-36166
OBJECT_ID      = 2025-298K
CENTER_NAME    = EARTH
REF_FRAME      = TEME
TIME_SYSTEM    = UTC
MEAN_ELEMENT_THEORY = SGP/SGP4

EPOCH          = 2026-01-01T20:00:03.000384
MEAN_MOTION    = 15.52548969
ECCENTRICITY   = .0003415
INCLINATION    = 69.9994
RA_OF_ASC_NODE = 193.1737
ARG_OF_PERICENTER = 276.6663
MEAN_ANOMALY   = 306.9326

EPHEMERIS_TYPE = 0
CLASSIFICATION_TYPE = U
NORAD_CAT_ID   = 67084
ELEMENT_SET_NO = 999
REV_AT_EPOCH   = 414
BSTAR          = -.13823E-2
MEAN_MOTION_DOT = -.84407E-3
MEAN_MOTION_DDOT = 0

CCSDS_OMM_VERS = 2.0
CREATION_DATE  = 
ORIGINATOR     = 

OBJECT_NAME    = STARLINK-35794
OBJECT_ID      = 2025-298L
CENTER_NAME    = EARTH
REF_FRAME      = TEME
TIME_SYSTEM    = UTC
MEAN_ELEMENT_THEORY = SGP/SGP4

EPOCH          = 2026-01-01T20:00:03.000384
MEAN_MOTION    = 15.52541330
ECCENTRICITY   = .0003572
INCLINATION    = 69.9991
RA_OF_ASC_NODE = 193.1733
ARG_OF_PERICENTER = 274.9242
MEAN_ANOMALY   = 310.5916

EPHEMERIS_TYPE = 0
CLASSIFICATION_TYPE = U
NORAD_CAT_ID   = 67085
ELEMENT_SET_NO = 999
REV_AT_EPOCH   = 420
BSTAR          = -.98005E-3
MEAN_MOTION_DOT = -.60059E-3
MEAN_MOTION_DDOT = 0

CCSDS_OMM_VERS = 2.0
CREATION_DATE  = 
ORIGINATOR     = 

OBJECT_NAME    = STARLINK-35841
OBJECT_ID      = 2025-298M
CENTER_NAME    = EARTH
REF_FRAME      = TEME
TIME_SYSTEM    = UTC
MEAN_ELEMENT_THEORY = SGP/SGP4

EPOCH          = 2026-01-01T20:00:03.000384
MEAN_MOTION    = 15.52556707
ECCENTRICITY   = .0003463
INCLINATION    = 69.9994
RA_OF_ASC_NODE = 193.1690
ARG_OF_PERICENTER = 277.4115
MEAN_ANOMALY   = 310.0238

EPHEMERIS_TYPE = 0
CLASSIFICATION_TYPE = U
NORAD_CAT_ID   = 67086
ELEMENT_SET_NO = 999
REV_AT_EPOCH   = 420
BSTAR          = -.1685E-2
MEAN_MOTION_DOT = -.102649E-2
MEAN_MOTION_DDOT = 0

CCSDS_OMM_VERS = 2.0
CREATION_DATE  = 
ORIGINATOR     = 

OBJECT_NAME    = STARLINK-35842
OBJECT_ID      = 2025-298N
CENTER_NAME    = EARTH
REF_FRAME      = TEME
TIME_SYSTEM    = UTC
MEAN_ELEMENT_THEORY = SGP/SGP4

EPOCH          = 2026-01-01T20:00:03.000384
MEAN_MOTION    = 15.44111270
ECCENTRICITY   = .0003686
INCLINATION    = 69.9990
RA_OF_ASC_NODE = 193.3761
ARG_OF_PERICENTER = 276.2901
MEAN_ANOMALY   = 132.8227

EPHEMERIS_TYPE = 0
CLASSIFICATION_TYPE = U
NORAD_CAT_ID   = 67087
ELEMENT_SET_NO = 999
REV_AT_EPOCH   = 420
BSTAR          = -.4238E-1
MEAN_MOTION_DOT = -.1732425E-1
MEAN_MOTION_DDOT = 0

CCSDS_OMM_VERS = 2.0
CREATION_DATE  = 
ORIGINATOR     = 

OBJECT_NAME    = STARLINK-35882
OBJECT_ID      = 2025-298P
CENTER_NAME    = EARTH
REF_FRAME      = TEME
TIME_SYSTEM    = UTC
MEAN_ELEMENT_THEORY = SGP/SGP4

EPOCH          = 2026-01-01T20:00:03.000384
MEAN_MOTION    = 15.52539929
ECCENTRICITY   = .0003528
INCLINATION    = 69.9991
RA_OF_ASC_NODE = 193.1652
ARG_OF_PERICENTER = 277.1948
MEAN_ANOMALY   = 314.0726

EPHEMERIS_TYPE = 0
CLASSIFICATION_TYPE = U
NORAD_CAT_ID   = 67088
ELEMENT_SET_NO = 999
REV_AT_EPOCH   = 420
BSTAR          = -.10711E-2
MEAN_MOTION_DOT = -.65573E-3
MEAN_MOTION_DDOT = 0

CCSDS_OMM_VERS = 2.0
CREATION_DATE  = 
ORIGINATOR     = 

OBJECT_NAME    = STARLINK-35763
OBJECT_ID      = 2025-298Q
CENTER_NAME    = EARTH
REF_FRAME      = TEME
TIME_SYSTEM    = UTC
MEAN_ELEMENT_THEORY = SGP/SGP4

EPOCH          = 2026-01-01T20:00:03.000384
MEAN_MOTION    = 15.52544937
ECCENTRICITY   = .0003487
INCLINATION    = 69.9992
RA_OF_ASC_NODE = 193.1621
ARG_OF_PERICENTER = 278.0447
MEAN_ANOMALY   = 315.1377

EPHEMERIS_TYPE = 0
CLASSIFICATION_TYPE = U
NORAD_CAT_ID   = 67089
ELEMENT_SET_NO = 999
REV_AT_EPOCH   = 420
BSTAR          = -.12701E-2
MEAN_MOTION_DOT = -.77621E-3
MEAN_MOTION_DDOT = 0

CCSDS_OMM_VERS = 2.0
CREATION_DATE  = 
ORIGINATOR     = 

OBJECT_NAME    = STARLINK-36060
OBJECT_ID      = 2025-298R
CENTER_NAME    = EARTH
REF_FRAME      = TEME
TIME_SYSTEM    = UTC
MEAN_ELEMENT_THEORY = SGP/SGP4

EPOCH          = 2026-01-01T20:00:03.000384
MEAN_MOTION    = 15.52541553
ECCENTRICITY   = .0003499
INCLINATION    = 69.9992
RA_OF_ASC_NODE = 193.1596
ARG_OF_PERICENTER = 276.1009
MEAN_ANOMALY   = 318.9982

EPHEMERIS_TYPE = 0
CLASSIFICATION_TYPE = U
NORAD_CAT_ID   = 67090
ELEMENT_SET_NO = 999
REV_AT_EPOCH   = 414
BSTAR          = -.11633E-2
MEAN_MOTION_DOT = -.71158E-3
MEAN_MOTION_DDOT = 0

CCSDS_OMM_VERS = 2.0
CREATION_DATE  = 
ORIGINATOR     = 

OBJECT_NAME    = STARLINK-36097
OBJECT_ID      = 2025-298S
CENTER_NAME    = EARTH
REF_FRAME      = TEME
TIME_SYSTEM    = UTC
MEAN_ELEMENT_THEORY = SGP/SGP4

EPOCH          = 2026-01-01T20:00:03.000384
MEAN_MOTION    = 15.52543918
ECCENTRICITY   = .0003456
INCLINATION    = 69.9993
RA_OF_ASC_NODE = 193.1575
ARG_OF_PERICENTER = 276.7593
MEAN_ANOMALY   = 320.2590

EPHEMERIS_TYPE = 0
CLASSIFICATION_TYPE = U
NORAD_CAT_ID   = 67091
ELEMENT_SET_NO = 999
REV_AT_EPOCH   = 420
BSTAR          = -.12766E-2
MEAN_MOTION_DOT = -.78011E-3
MEAN_MOTION_DDOT = 0

CCSDS_OMM_VERS = 2.0
CREATION_DATE  = 
ORIGINATOR     = 

OBJECT_NAME    = STARLINK-35792
OBJECT_ID      = 2025-298T
CENTER_NAME    = EARTH
REF_FRAME      = TEME
TIME_SYSTEM    = UTC
MEAN_ELEMENT_THEORY = SGP/SGP4

EPOCH          = 2026-01-01T20:00:03.000384
MEAN_MOTION    = 15.52566401
ECCENTRICITY   = .000348
INCLINATION    = 69.9991
RA_OF_ASC_NODE = 193.1551
ARG_OF_PERICENTER = 276.2835
MEAN_ANOMALY   = 322.6489

EPHEMERIS_TYPE = 0
CLASSIFICATION_TYPE = U
NORAD_CAT_ID   = 67092
ELEMENT_SET_NO = 999
REV_AT_EPOCH   = 414
BSTAR          = -.19024E-2
MEAN_MOTION_DOT = -.115718E-2
MEAN_MOTION_DDOT = 0

CCSDS_OMM_VERS = 2.0
CREATION_DATE  = 
ORIGINATOR     = 

OBJECT_NAME    = STARLINK-35784
OBJECT_ID      = 2025-298U
CENTER_NAME    = EARTH
REF_FRAME      = TEME
TIME_SYSTEM    = UTC
MEAN_ELEMENT_THEORY = SGP/SGP4

EPOCH          = 2026-01-01T20:00:03.000384
MEAN_MOTION    = 15.52556697
ECCENTRICITY   = .0003518
INCLINATION    = 69.9991
RA_OF_ASC_NODE = 193.1526
ARG_OF_PERICENTER = 277.0429
MEAN_ANOMALY   = 323.8041

EPHEMERIS_TYPE = 0
CLASSIFICATION_TYPE = U
NORAD_CAT_ID   = 67093
ELEMENT_SET_NO = 999
REV_AT_EPOCH   = 420
BSTAR          = -.15661E-2
MEAN_MOTION_DOT = -.95502E-3
MEAN_MOTION_DDOT = 0

CCSDS_OMM_VERS = 2.0
CREATION_DATE  = 
ORIGINATOR     = 

OBJECT_NAME    = STARLINK-36202
OBJECT_ID      = 2025-298V
CENTER_NAME    = EARTH
REF_FRAME      = TEME
TIME_SYSTEM    = UTC
MEAN_ELEMENT_THEORY = SGP/SGP4

EPOCH          = 2026-01-01T20:00:03.000384
MEAN_MOTION    = 15.52553395
ECCENTRICITY   = .0003382
INCLINATION    = 69.9991
RA_OF_ASC_NODE = 193.1508
ARG_OF_PERICENTER = 276.8645
MEAN_ANOMALY   = 325.8984

EPHEMERIS_TYPE = 0
CLASSIFICATION_TYPE = U
NORAD_CAT_ID   = 67094
ELEMENT_SET_NO = 999
REV_AT_EPOCH   = 420
BSTAR          = -.1462E-2
MEAN_MOTION_DOT = -.89219E-3
MEAN_MOTION_DDOT = 0

CCSDS_OMM_VERS = 2.0
CREATION_DATE  = 
ORIGINATOR     = 

OBJECT_NAME    = STARLINK-36227
OBJECT_ID      = 2025-298W
CENTER_NAME    = EARTH
REF_FRAME      = TEME
TIME_SYSTEM    = UTC
MEAN_ELEMENT_THEORY = SGP/SGP4

EPOCH          = 2026-01-01T20:00:03.000384
MEAN_MOTION    = 15.52570412
ECCENTRICITY   = .0003381
INCLINATION    = 69.9994
RA_OF_ASC_NODE = 193.1477
ARG_OF_PERICENTER = 275.5024
MEAN_ANOMALY   = 329.1787

EPHEMERIS_TYPE = 0
CLASSIFICATION_TYPE = U
NORAD_CAT_ID   = 67095
ELEMENT_SET_NO = 999
REV_AT_EPOCH   = 414
BSTAR          = -.20163E-2
MEAN_MOTION_DOT = -.122552E-2
MEAN_MOTION_DDOT = 0

